{
  "type": "FeatureCollection",
  "features": [
    {
      "type": "Feature",
      "properties": {
        "norad_id": 34572,
        "name": "COSMOS 2251 DEB",
        "group": "cosmos-2251-debris",
        "lat": 50.47510072395966,
        "lon": 112.46924435642697,
        "alt_km": 734.7004322309895,
        "timestamp": "2025-12-25T03:55:56.761933+00:00",
        "meta_object_name": "COSMOS 2251 DEB",
        "meta_object_id": "1993-036VJ",
        "meta_epoch": "2025-12-23T07:16:46.288992",
        "meta_mean_motion": 14.50207982,
        "meta_eccentricity": 0.00615459,
        "meta_inclination": 74.0109,
        "meta_ra_of_asc_node": 95.6327,
        "meta_arg_of_pericenter": 167.5469,
        "meta_mean_anomaly": 256.968,
        "meta_ephemeris_type": 0,
        "meta_classification_type": "U",
        "meta_norad_cat_id": 34572,
        "meta_element_set_no": 999,
        "meta_rev_at_epoch": 87531,
        "meta_bstar": 0.0025014732,
        "meta_mean_motion_dot": 9.956e-05,
        "meta_mean_motion_ddot": 0,
        "tle_line1": "1 34572U 93036VJ  25357.30331353  .00009956  00000+0  25015-2 0  9998",
        "tle_line2": "2 34572  74.0109  95.6327 0061545 167.5469 256.9680 14.50207982875313"
      },
      "geometry": {
        "type": "Point",
        "coordinates": [
          112.46924435642697,
          50.47510072395966
        ]
      }
    },
    {
      "type": "Feature",
      "properties": {
        "norad_id": 34574,
        "name": "COSMOS 2251 DEB",
        "group": "cosmos-2251-debris",
        "lat": 38.34377036817026,
        "lon": -173.99318800949862,
        "alt_km": 666.3659278888872,
        "timestamp": "2025-12-25T03:55:56.761943+00:00",
        "meta_object_name": "COSMOS 2251 DEB",
        "meta_object_id": "1993-036VL",
        "meta_epoch": "2025-12-24T19:58:02.188992",
        "meta_mean_motion": 14.70731702,
        "meta_eccentricity": 0.0067268,
        "meta_inclination": 74.0691,
        "meta_ra_of_asc_node": 19.7072,
        "meta_arg_of_pericenter": 36.8631,
        "meta_mean_anomaly": 145.6604,
        "meta_ephemeris_type": 0,
        "meta_classification_type": "U",
        "meta_norad_cat_id": 34574,
        "meta_element_set_no": 999,
        "meta_rev_at_epoch": 88956,
        "meta_bstar": 0.0010097,
        "meta_mean_motion_dot": 6.35e-05,
        "meta_mean_motion_ddot": 0,
        "tle_line1": "1 34574U 93036VL  25358.83196978  .00006350  00000+0  10097-2 0  9990",
        "tle_line2": "2 34574  74.0691  19.7072 0067268  36.8631 145.6604 14.70731702889568"
      },
      "geometry": {
        "type": "Point",
        "coordinates": [
          -173.99318800949862,
          38.34377036817026
        ]
      }
    },
    {
      "type": "Feature",
      "properties": {
        "norad_id": 34576,
        "name": "COSMOS 2251 DEB",
        "group": "cosmos-2251-debris",
        "lat": 29.340275126152694,
        "lon": -74.60107815905864,
        "alt_km": 707.2940334018622,
        "timestamp": "2025-12-25T03:55:56.761953+00:00",
        "meta_object_name": "COSMOS 2251 DEB",
        "meta_object_id": "1993-036VN",
        "meta_epoch": "2025-12-24T14:06:21.885120",
        "meta_mean_motion": 14.5550624,
        "meta_eccentricity": 0.0008287,
        "meta_inclination": 74.0348,
        "meta_ra_of_asc_node": 115.75,
        "meta_arg_of_pericenter": 253.9656,
        "meta_mean_anomaly": 117.9687,
        "meta_ephemeris_type": 0,
        "meta_classification_type": "U",
        "meta_norad_cat_id": 34576,
        "meta_element_set_no": 999,
        "meta_rev_at_epoch": 88639,
        "meta_bstar": 0.0009222,
        "meta_mean_motion_dot": 3.99e-05,
        "meta_mean_motion_ddot": 0,
        "tle_line1": "1 34576U 93036VN  25358.58775330  .00003990  00000+0  92220-3 0  9995",
        "tle_line2": "2 34576  74.0348 115.7500 0008287 253.9656 117.9687 14.55506240886398"
      },
      "geometry": {
        "type": "Point",
        "coordinates": [
          -74.60107815905864,
          29.340275126152694
        ]
      }
    },
    {
      "type": "Feature",
      "properties": {
        "norad_id": 34579,
        "name": "COSMOS 2251 DEB",
        "group": "cosmos-2251-debris",
        "lat": -73.49584037243889,
        "lon": 125.93601662272037,
        "alt_km": 728.4291010746201,
        "timestamp": "2025-12-25T03:55:56.761963+00:00",
        "meta_object_name": "COSMOS 2251 DEB",
        "meta_object_id": "1993-036VR",
        "meta_epoch": "2025-12-24T20:05:58.711776",
        "meta_mean_motion": 14.45339161,
        "meta_eccentricity": 0.0027494,
        "meta_inclination": 74.0513,
        "meta_ra_of_asc_node": 201.37,
        "meta_arg_of_pericenter": 268.1941,
        "meta_mean_anomaly": 108.5757,
        "meta_ephemeris_type": 0,
        "meta_classification_type": "U",
        "meta_norad_cat_id": 34579,
        "meta_element_set_no": 999,
        "meta_rev_at_epoch": 88349,
        "meta_bstar": 0.00034166,
        "meta_mean_motion_dot": 1.179e-05,
        "meta_mean_motion_ddot": 0,
        "tle_line1": "1 34579U 93036VR  25358.83748509  .00001179  00000+0  34166-3 0  9996",
        "tle_line2": "2 34579  74.0513 201.3700 0027494 268.1941 108.5757 14.45339161883492"
      },
      "geometry": {
        "type": "Point",
        "coordinates": [
          125.93601662272037,
          -73.49584037243889
        ]
      }
    },
    {
      "type": "Feature",
      "properties": {
        "norad_id": 34582,
        "name": "COSMOS 2251 DEB",
        "group": "cosmos-2251-debris",
        "lat": 51.95417198050517,
        "lon": 47.791198888536556,
        "alt_km": 763.4191240084147,
        "timestamp": "2025-12-25T03:55:56.761974+00:00",
        "meta_object_name": "COSMOS 2251 DEB",
        "meta_object_id": "1993-036VU",
        "meta_epoch": "2025-12-24T19:02:25.609344",
        "meta_mean_motion": 14.4338296,
        "meta_eccentricity": 0.0048505,
        "meta_inclination": 74.019,
        "meta_ra_of_asc_node": 249.961,
        "meta_arg_of_pericenter": 357.523,
        "meta_mean_anomaly": 2.5679,
        "meta_ephemeris_type": 0,
        "meta_classification_type": "U",
        "meta_norad_cat_id": 34582,
        "meta_element_set_no": 999,
        "meta_rev_at_epoch": 88121,
        "meta_bstar": 0.00067134,
        "meta_mean_motion_dot": 2.272e-05,
        "meta_mean_motion_ddot": 0,
        "tle_line1": "1 34582U 93036VU  25358.79335196  .00002272  00000+0  67134-3 0  9995",
        "tle_line2": "2 34582  74.0190 249.9610 0048505 357.5230   2.5679 14.43382960881212"
      },
      "geometry": {
        "type": "Point",
        "coordinates": [
          47.791198888536556,
          51.95417198050517
        ]
      }
    },
    {
      "type": "Feature",
      "properties": {
        "norad_id": 34588,
        "name": "COSMOS 2251 DEB",
        "group": "cosmos-2251-debris",
        "lat": 55.896449985734215,
        "lon": 40.23798093015097,
        "alt_km": 759.757129587264,
        "timestamp": "2025-12-25T03:55:56.761984+00:00",
        "meta_object_name": "COSMOS 2251 DEB",
        "meta_object_id": "1993-036WA",
        "meta_epoch": "2025-12-24T17:41:17.707200",
        "meta_mean_motion": 14.42054735,
        "meta_eccentricity": 0.0019302,
        "meta_inclination": 74.0425,
        "meta_ra_of_asc_node": 246.0246,
        "meta_arg_of_pericenter": 297.5027,
        "meta_mean_anomaly": 127.9961,
        "meta_ephemeris_type": 0,
        "meta_classification_type": "U",
        "meta_norad_cat_id": 34588,
        "meta_element_set_no": 999,
        "meta_rev_at_epoch": 88123,
        "meta_bstar": 0.00038028,
        "meta_mean_motion_dot": 1.225e-05,
        "meta_mean_motion_ddot": 0,
        "tle_line1": "1 34588U 93036WA  25358.73701050  .00001225  00000+0  38028-3 0  9998",
        "tle_line2": "2 34588  74.0425 246.0246 0019302 297.5027 127.9961 14.42054735881235"
      },
      "geometry": {
        "type": "Point",
        "coordinates": [
          40.23798093015097,
          55.896449985734215
        ]
      }
    },
    {
      "type": "Feature",
      "properties": {
        "norad_id": 34589,
        "name": "COSMOS 2251 DEB",
        "group": "cosmos-2251-debris",
        "lat": -16.48752631081703,
        "lon": 29.966299988160635,
        "alt_km": 763.4622720910274,
        "timestamp": "2025-12-25T03:55:56.761994+00:00",
        "meta_object_name": "COSMOS 2251 DEB",
        "meta_object_id": "1993-036WB",
        "meta_epoch": "2025-12-23T21:42:26.428320",
        "meta_mean_motion": 13.8606592,
        "meta_eccentricity": 0.0252393,
        "meta_inclination": 73.925,
        "meta_ra_of_asc_node": 37.0071,
        "meta_arg_of_pericenter": 338.1339,
        "meta_mean_anomaly": 202.7373,
        "meta_ephemeris_type": 0,
        "meta_classification_type": "U",
        "meta_norad_cat_id": 34589,
        "meta_element_set_no": 999,
        "meta_rev_at_epoch": 84866,
        "meta_bstar": 0.00043468,
        "meta_mean_motion_dot": 6.18e-06,
        "meta_mean_motion_ddot": 0,
        "tle_line1": "1 34589U 93036WB  25357.90447255  .00000618  00000+0  43468-3 0  9990",
        "tle_line2": "2 34589  73.9250  37.0071 0252393 338.1339 202.7373 13.86065920848665"
      },
      "geometry": {
        "type": "Point",
        "coordinates": [
          29.966299988160635,
          -16.48752631081703
        ]
      }
    }
  ]
}